NORAD_CAT_ID,OBJECT_NAME,OBJECT_TYPE,EPOCH,MEAN_MOTION,ECCENTRICITY,INCLINATION,RA_OF_ASC_NODE,ARG_OF_PERICENTER,MEAN_ANOMALY,BSTAR,MEAN_MOTION_DOT,MEAN_MOTION_DDOT,TLE_LINE0,TLE_LINE1,TLE_LINE2,SEMIMAJOR_AXIS,PERIOD,APOGEE,PERIGEE,DECAYED
53996.0,STARLINK-5131,PAYLOAD,2024-04-25 02:01:38,15.08846909,0.0001723,53.2198,42.785,119.56,240.5564,0.00029487,4.409e-05,0.0,0 STARLINK-5131,1 53996U 22125AJ  24116.08447244  .00004409  00000-0  29487-3 0  9991,2 53996  53.2198  42.7850 0001723 119.5600 240.5564 15.08846909 86339,6917.859,95.437,540.916,538.532,0.0
53996.0,STARLINK-5131,PAYLOAD,2024-04-25 22:41:38,15.08856868,0.0001532,53.2193,38.9168,123.9065,236.2073,0.00031767,4.774e-05,0.0,0 STARLINK-5131,1 53996U 22125AJ  24116.94558427  .00004774  00000-0  31767-3 0  9991,2 53996  53.2193  38.9168 0001532 123.9065 236.2073 15.08856868 86393,6917.829,95.436,540.754,538.634,0.0
53996.0,STARLINK-5131,PAYLOAD,2024-04-26 00:17:02,15.08823965,0.0001247,53.2194,38.6228,106.1684,253.9445,-0.00050469,-8.307e-05,0.0,0 STARLINK-5131,1 53996U 22125AJ  24117.01183015 -.00008307  00000-0 -50469-3 0  9995,2 53996  53.2194  38.6228 0001247 106.1684 253.9445 15.08823965 86471,6917.929,95.439,540.657,538.932,0.0
53996.0,STARLINK-5131,PAYLOAD,2024-04-26 11:24:44,15.08830653,0.0001007,53.2174,36.5381,103.1699,256.9405,-0.00015551,-2.761e-05,0.0,0 STARLINK-5131,1 53996U 22125AJ  24117.47551267 -.00002761  00000-0 -15551-3 0  9994,2 53996  53.2174  36.5381 0001007 103.1699 256.9405 15.08830653 86474,6917.909,95.438,540.471,539.077,0.0
53996.0,STARLINK-5131,PAYLOAD,2024-04-27 03:18:35,15.08855417,0.0001427,53.2183,33.5662,109.2886,250.8261,0.00051552,7.929e-05,0.0,0 STARLINK-5131,1 53996U 22125AJ  24118.13790989  .00007929  00000-0  51552-3 0  9994,2 53996  53.2183  33.5662 0001427 109.2886 250.8261 15.08855417 86641,6917.833,95.437,540.685,538.711,0.0
53996.0,STARLINK-5131,PAYLOAD,2024-04-27 11:15:31,15.08843981,8.72e-05,53.2178,32.0786,89.9892,270.12,0.00027384,4.074e-05,0.0,0 STARLINK-5131,1 53996U 22125AJ  24118.46911173  .00004074  00000-0  27384-3 0  9994,2 53996  53.2178  32.0786 0000872  89.9892 270.1200 15.08843981 86696,6917.868,95.437,540.336,539.13,0.0
53996.0,STARLINK-5131,PAYLOAD,2024-04-27 22:23:14,15.08824856,0.0001366,53.2165,29.9964,74.0981,286.0162,-1.8159e-05,-5.77e-06,0.0,0 STARLINK-5131,1 53996U 22125AJ  24118.93280331 -.00000577  00000-0 -18159-4 0  9998,2 53996  53.2165  29.9964 0001366  74.0981 286.0162 15.08824856 86691,6917.927,95.439,540.737,538.847,0.0
53996.0,STARLINK-5131,PAYLOAD,2024-04-28 03:09:23,15.08831806,0.0001966,53.2169,29.1048,73.676,286.4448,0.00013265,1.823e-05,0.0,0 STARLINK-5131,1 53996U 22125AJ  24119.13152482  .00001823  00000-0  13265-3 0  9991,2 53996  53.2169  29.1048 0001966  73.6760 286.4448 15.08831806 86791,6917.905,95.438,541.13,538.41,0.0
53996.0,STARLINK-5131,PAYLOAD,2024-04-28 11:06:19,15.08836833,0.0001196,53.2176,27.6172,85.3,274.8129,0.00017467,2.493e-05,0.0,0 STARLINK-5131,1 53996U 22125AJ  24119.46272157  .00002493  00000-0  17467-3 0  9991,2 53996  53.2176  27.6172 0001196  85.3000 274.8129 15.08836833 86772,6917.89,95.438,540.582,538.928,0.0
53996.0,STARLINK-5131,PAYLOAD,2024-04-28 22:14:01,15.08843067,0.0001475,53.2182,25.5362,81.1714,278.9445,0.00023996,3.533e-05,0.0,0 STARLINK-5131,1 53996U 22125AJ  24119.92640191  .00003533  00000-0  23996-3 0  9999,2 53996  53.2182  25.5362 0001475  81.1714 278.9445 15.08843067 86844,6917.871,95.437,540.756,538.716,0.0
53996.0,STARLINK-5131,PAYLOAD,2024-04-28 23:49:24,15.08842094,0.0001107,53.2164,25.24,84.3098,275.8021,0.00024571,3.625e-05,0.0,0 STARLINK-5131,1 53996U 22125AJ  24119.99264091  .00003625  00000-0  24571-3 0  9999,2 53996  53.2164  25.2400 0001107  84.3098 275.8021 15.08842094 86920,6917.874,95.437,540.505,538.973,0.0
53996.0,STARLINK-5131,PAYLOAD,2024-04-29 10:57:06,15.08843678,0.0001145,53.216,23.1567,86.0055,274.1068,0.00027755,4.133e-05,0.0,0 STARLINK-5131,1 53996U 22125AJ  24120.45632023  .00004133  00000-0  27755-3 0  9998,2 53996  53.2160  23.1567 0001145  86.0055 274.1068 15.08843678 86923,6917.869,95.437,540.526,538.942,0.0
53996.0,STARLINK-5131,PAYLOAD,2024-04-29 22:04:48,15.0884,0.0001157,53.2159,21.0754,83.6799,276.4325,0.00036927,5.594e-05,0.0,0 STARLINK-5131,1 53996U 22125AJ  24120.92000282  .00005594  00000-0  36927-3 0  9999,2 53996  53.2159  21.0754 0001157  83.6799 276.4325 15.08840000 86991,6917.88,95.438,540.546,538.945,0.0
53996.0,STARLINK-5131,PAYLOAD,2024-04-29 23:40:11,15.08840065,0.0001174,53.2161,20.778,84.5896,275.523,0.00033414,5.034e-05,0.0,0 STARLINK-5131,1 53996U 22125AJ  24120.98624267  .00005034  00000-0  33414-3 0  9997,2 53996  53.2161  20.7780 0001174  84.5896 275.5230 15.08840065 87072,6917.88,95.438,540.557,538.933,0.0
53996.0,STARLINK-5131,PAYLOAD,2024-04-30 10:47:52,15.08851737,0.0001354,53.2179,18.6978,78.9198,281.1946,0.00024496,3.614e-05,0.0,0 STARLINK-5131,1 53996U 22125AJ  24121.44991527  .00003614  00000-0  24496-3 0  9997,2 53996  53.2179  18.6978 0001354  78.9198 281.1946 15.08851737 87141,6917.845,95.437,540.646,538.773,0.0
53996.0,STARLINK-5131,PAYLOAD,2024-04-30 21:55:34,15.08847913,0.0001498,53.2185,16.6167,85.7686,274.3477,0.00013783,1.907e-05,0.0,0 STARLINK-5131,1 53996U 22125AJ  24121.91359596  .00001907  00000-0  13783-3 0  9993,2 53996  53.2185  16.6167 0001498  85.7686 274.3477 15.08847913 87147,6917.856,95.437,540.757,538.685,0.0
53996.0,STARLINK-5131,PAYLOAD,2024-05-01 02:41:43,15.0885429,0.0001413,53.2188,15.7232,92.2821,267.8333,0.00011879,1.604e-05,0.0,0 STARLINK-5131,1 53996U 22125AJ  24122.11231142  .00001604  00000-0  11879-3 0  9990,2 53996  53.2188  15.7232 0001413  92.2821 267.8333 15.08854290 87171,6917.837,95.437,540.679,538.724,0.0
53996.0,STARLINK-5131,PAYLOAD,2024-05-02 02:32:30,15.08851137,0.0001361,53.2174,11.2633,79.7871,280.3274,0.00011504,1.544e-05,0.0,0 STARLINK-5131,1 53996U 22125AJ  24123.10590894  .00001544  00000-0  11504-3 0  9990,2 53996  53.2174  11.2633 0001361  79.7871 280.3274 15.08851137 87394,6917.846,95.437,540.653,538.77,0.0
53996.0,STARLINK-5131,PAYLOAD,2024-05-02 20:01:45,15.08839045,0.0001249,53.2157,7.9888,95.4752,264.6382,1.3957e-05,-6.6e-07,0.0,0 STARLINK-5131,1 53996U 22125AJ  24123.83455379 -.00000066  00000-0  13957-4 0  9992,2 53996  53.2157   7.9888 0001249  95.4752 264.6382 15.08839045 87509,6917.883,95.438,540.612,538.884,0.0
53996.0,STARLINK-5131,PAYLOAD,2024-05-03 08:44:50,15.08844259,0.0001131,53.2173,5.6138,83.0626,277.0495,2.9392e-05,1.8e-06,0.0,0 STARLINK-5131,1 53996U 22125AJ  24124.36447000  .00000180  00000-0  29392-4 0  9999,2 53996  53.2173   5.6138 0001131  83.0626 277.0495 15.08844259 87510,6917.867,95.437,540.515,538.95,0.0
53996.0,STARLINK-5131,PAYLOAD,2024-05-03 19:52:33,15.08815417,0.0001333,53.2165,3.5292,71.1585,288.9551,-0.0001742,-3.057e-05,0.0,0 STARLINK-5131,1 53996U 22125AJ  24124.82816975 -.00003057  00000-0 -17420-3 0  9997,2 53996  53.2165   3.5292 0001333  71.1585 288.9551 15.08815417 87658,6917.956,95.439,540.743,538.898,0.0
53996.0,STARLINK-5131,PAYLOAD,2024-05-03 23:03:19,15.08825307,0.0001347,53.2181,2.9405,88.8155,271.2992,-0.00025641,-4.365e-05,0.0,0 STARLINK-5131,1 53996U 22125AJ  24124.96064529 -.00004365  00000-0 -25641-3 0  9999,2 53996  53.2181   2.9405 0001347  88.8155 271.2992 15.08825307 87606,6917.925,95.438,540.722,538.858,0.0
53996.0,STARLINK-5131,PAYLOAD,2024-05-04 21:18:43,15.08843509,0.0001229,53.2174,358.7755,81.6354,278.4778,0.00039467,5.999e-05,0.0,0 STARLINK-5131,1 53996U 22125AJ  24125.88800725  .00005999  00000-0  39467-3 0  9990,2 53996  53.2174 358.7755 0001229  81.6354 278.4778 15.08843509 87817,6917.87,95.437,540.585,538.884,0.0
53996.0,STARLINK-5131,PAYLOAD,2024-05-05 02:04:53,15.08859304,0.0001179,53.2172,357.8831,77.9862,282.1262,0.0012884,0.00020287,0.0,0 STARLINK-5131,1 53996U 22125AJ  24126.08672818  .00020287  00000-0  12884-2 0  9993,2 53996  53.2172 357.8831 0001179  77.9862 282.1262 15.08859304 87849,6917.821,95.436,540.502,538.871,0.0
53996.0,STARLINK-5131,PAYLOAD,2024-05-05 21:09:30,15.08856766,0.0001219,53.2159,354.3141,70.27,289.8424,0.00076623,0.00011933,0.0,0 STARLINK-5131,1 53996U 22125AJ  24126.88160369  .00011933  00000-0  76623-3 0  9994,2 53996  53.2159 354.3141 0001219  70.2700 289.8424 15.08856766 87968,6917.829,95.436,540.537,538.851,0.0
53996.0,STARLINK-5131,PAYLOAD,2024-05-05 22:44:53,15.08861887,0.0001238,53.2163,354.0167,75.2325,284.8805,0.00070549,0.00010964,0.0,0 STARLINK-5131,1 53996U 22125AJ  24126.94784215  .00010964  00000-0  70549-3 0  9997,2 53996  53.2163 354.0167 0001238  75.2325 284.8805 15.08861887 87909,6917.813,95.436,540.535,538.822,0.0
53996.0,STARLINK-5131,PAYLOAD,2024-05-06 08:17:12,15.08856205,0.0001324,53.2159,352.233,84.5793,275.5351,0.00038908,5.912e-05,0.0,0 STARLINK-5131,1 53996U 22125AJ  24127.34527951  .00005912  00000-0  38908-3 0  9994,2 53996  53.2159 352.2330 0001324  84.5793 275.5351 15.08856205 88030,6917.831,95.437,540.612,538.78,0.0
53996.0,STARLINK-5131,PAYLOAD,2024-05-06 22:35:39,15.08857244,0.0001253,53.2169,349.5553,85.7368,274.3767,0.00022295,3.264e-05,0.0,0 STARLINK-5131,1 53996U 22125AJ  24127.94143497  .00003264  00000-0  22295-3 0  9999,2 53996  53.2169 349.5553 0001253  85.7368 274.3767 15.08857244 88053,6917.828,95.436,540.559,538.826,0.0
53996.0,STARLINK-5131,PAYLOAD,2024-05-07 08:07:59,15.08846484,0.0001302,53.2175,347.7698,89.9259,270.1882,2.2197e-05,6.5e-07,0.0,0 STARLINK-5131,1 53996U 22125AJ  24128.33887756  .00000065  00000-0  22197-4 0  9994,2 53996  53.2175 347.7698 0001302  89.9259 270.1882 15.08846484 88180,6917.861,95.437,540.626,538.825,0.0
53996.0,STARLINK-5131,PAYLOAD,2024-05-07 20:51:04,15.0883588,0.0001451,53.2178,345.3905,104.1459,255.9695,-0.00013487,-2.434e-05,0.0,0 STARLINK-5131,1 53996U 22125AJ  24128.86880251 -.00002434  00000-0 -13487-3 0  9990,2 53996  53.2178 345.3905 0001451 104.1459 255.9695 15.08835880 88265,6917.893,95.438,540.762,538.754,0.0
